{"type": "FeatureCollection", "features": [{"id": "0", "type": "Feature", "properties": {"attribute": "PFO4Dq", "wetland_type": "Freshwater Forested Wetland", "acres": 0.38905545, "hgm_code": "TEPTOU", "hgm_desc": "Terrene Peatland Outflow", "spcc_desc": "Coniferous Bog", "cow_class1": "FO", "circ39_class": 8, "hgm_symbol": "Peatland", "_source_index": "1358735"}, "geometry": {"type": "Polygon", "coordinates": [[[668438.8698000005, 5325549.7508000005], [668438.6162, 5325549.962099999], [668439.0708999997, 5325550.303200001], [668438.8698000005, 5325550.544500001], [668436.4885, 5325556.1008], [668438.8698000005, 5325561.6570999995], [668444.426, 5325564.0383], [668449.1885000002, 5325568.800799999], [668449.9823000003, 5325575.150800001], [668449.9823000003, 5325582.294600001], [668449.9823000003, 5325588.6446], [668452.3635, 5325594.2009], [668457.1260000002, 5325598.169600001], [668462.6823000005, 5325600.550899999], [668467.4447999997, 5325604.5197], [668472.2072999999, 5325608.488399999], [668477.7636000002, 5325611.6634], [668480.8574999999, 5325613.431399999], [668481.4677999998, 5325608.091499999], [668470.3552000001, 5325579.5165], [668471.1490000002, 5325564.4352], [668474.2960000001, 5325553.0272], [668472.2072999999, 5325552.131999999], [668467.9286460951, 5325548.5665], [668440.5277841927, 5325548.5665], [668438.8698000005, 5325549.7508000005]]]}}, {"id": "1", "type": "Feature", "properties": {"attribute": "PEM1C", "wetland_type": "Freshwater Emergent Wetland", "acres": 0.35576951, "hgm_code": "TEBAVR", "hgm_desc": "Terrene Basin Vertical", "spcc_desc": "Shallow Marsh", "cow_class1": "EM1", "circ39_class": 3, "hgm_symbol": "Depression", "_source_index": "1358253"}, "geometry": {"type": "Polygon", "coordinates": [[[668490.7062999997, 5325628.757999999], [668496.5489999996, 5325631.904100001], [668508.4552999996, 5325634.2853], [668517.1865999997, 5325631.110300001], [668518.6157999998, 5325629.6811], [668515.5, 5325627.5], [668514.5, 5325624.5], [668512.0, 5325622.0], [668502.5, 5325617.0], [668496.5, 5325610.5], [668492.3202, 5325610.035599999], [668490.4636000004, 5325608.488399999], [668488.8761, 5325602.1384], [668488.8761, 5325594.9946], [668489.6699000001, 5325588.6446], [668492.0510999998, 5325582.294600001], [668494.4324000003, 5325576.738299999], [668496.8136, 5325571.1821], [668493.6386000002, 5325565.6258000005], [668488.8761, 5325561.6570999995], [668482.5261000004, 5325558.482100001], [668477.7636000002, 5325554.5133], [668474.2960000001, 5325553.0272], [668471.1490000002, 5325564.4352], [668470.3552000001, 5325579.5165], [668481.4677999998, 5325608.091499999], [668480.8574999999, 5325613.431399999], [668483.3197999997, 5325614.838400001], [668487.2885999996, 5325619.6009], [668488.0823999997, 5325626.7447], [668488.0823999997, 5325633.094699999], [668486.4949000003, 5325639.444700001], [668486.1789999995, 5325641.971899999], [668490.0, 5325639.0], [668490.7062999997, 5325628.757999999]]]}}, {"id": "2", "type": "Feature", "properties": {"attribute": "PSS1D", "wetland_type": "Freshwater Shrub Wetland", "acres": 2.33342674, "hgm_code": "TEFLVR", "hgm_desc": "Terrene Flat Vertical", "spcc_desc": "Shrub Wetland", "cow_class1": "SS", "circ39_class": 6, "hgm_symbol": "Mineral Flat", "_source_index": "1359012"}, "geometry": {"type": "Polygon", "coordinates": [[[668533.0, 5325635.0], [668527.0, 5325636.5], [668522.5, 5325634.5], [668520.5, 5325631.0], [668518.6157999998, 5325629.6811], [668517.1865999997, 5325631.110300001], [668508.4552999996, 5325634.2853], [668496.5489999996, 5325631.904100001], [668490.7062999997, 5325628.757999999], [668490.0, 5325639.0], [668486.1789999995, 5325641.971899999], [668485.5, 5325642.5], [668484.0, 5325645.0], [668478.0, 5325648.5], [668477.9704444446, 5325648.5665], [668533.31985, 5325648.5665], [668533.31985, 5325635.31985], [668533.0, 5325635.0]]]}}], "crs": {"type": "name", "properties": {"name": "urn:ogc:def:crs:EPSG::26915"}}}