{"type": "FeatureCollection", "features": [{"id": "0", "type": "Feature", "properties": {"attribute": "PEM1C", "wetland_type": "Freshwater Emergent Wetland", "acres": 0.23331036, "hgm_code": "TEFLVR", "hgm_desc": "Terrene Flat Vertical", "spcc_desc": "Shallow Marsh", "cow_class1": "EM1", "circ39_class": 3, "hgm_symbol": "Mineral Flat", "_source_index": "950873"}, "geometry": {"type": "Polygon", "coordinates": [[[435717.0574000003, 5004833.3541], [435711.4753999999, 5004849.5417], [435709.24260000046, 5004879.6843], [435717.0574000003, 5004882.475299999], [435724.8030000003, 5004876.182], [435729.33770000003, 5004866.845799999], [435739.9434000002, 5004836.703199999], [435717.0574000003, 5004833.3541]]]}}, {"id": "1", "type": "Feature", "properties": {"attribute": "PEM1A", "wetland_type": "Freshwater Emergent Wetland", "acres": 0.21901765, "hgm_code": "TESLVR", "hgm_desc": "Terrene Slope Vertical", "spcc_desc": "Seasonally Flooded/Saturated Emergent Wetland", "cow_class1": "EM1", "circ39_class": 1, "hgm_symbol": "Slope", "_source_index": "951449"}, "geometry": {"type": "Polygon", "coordinates": [[[435671.6082172325, 5004904.509293591], [435671.6082172325, 5004908.19375], [435683.8898119353, 5004908.19375], [435671.6082172325, 5004904.509293591]]]}}], "crs": {"type": "name", "properties": {"name": "urn:ogc:def:crs:EPSG::26915"}}}