{"type": "FeatureCollection", "features": [{"id": "0", "type": "Feature", "properties": {"attribute": "PSS1D", "wetland_type": "Freshwater Shrub Wetland", "acres": 0.62184069, "hgm_code": "TEFLVR", "hgm_desc": "Terrene Flat Vertical", "spcc_desc": "Shrub Wetland", "cow_class1": "SS", "circ39_class": 6, "hgm_symbol": "Mineral Flat", "_source_index": "1359002"}, "geometry": {"type": "Polygon", "coordinates": [[[668483.5, 5325351.0], [668483.0, 5325354.0], [668484.5, 5325356.0], [668489.5, 5325357.0], [668492.5, 5325360.0], [668497.0, 5325359.0], [668497.5, 5325359.0], [668499.0, 5325349.5], [668500.0890833336, 5325348.5665], [668482.4570714284, 5325348.5665], [668483.5, 5325351.0]]]}}, {"id": "1", "type": "Feature", "properties": {"attribute": "PFO4/SS1Dq", "wetland_type": "Freshwater Forested/Shrub Wetland", "acres": 12.01758545, "hgm_code": "TEPTVR", "hgm_desc": "Terrene Peatland Vertical", "spcc_desc": "Coniferous Bog", "cow_class1": "FO", "circ39_class": 8, "hgm_symbol": "Peatland", "_source_index": "1358580"}, "geometry": {"type": "Polygon", "coordinates": [[[668235.5, 5325475.5], [668239.0, 5325474.5], [668245.5, 5325477.5], [668251.0, 5325477.0], [668253.0, 5325477.0], [668254.0, 5325477.5], [668255.5, 5325480.5], [668258.0, 5325482.5], [668260.0, 5325488.0], [668264.0, 5325490.5], [668272.5, 5325490.5], [668278.0, 5325487.0], [668278.0, 5325486.5], [668281.5, 5325481.5], [668281.0, 5325476.5], [668281.0, 5325473.5], [668281.5, 5325471.0], [668277.0, 5325466.5], [668271.0, 5325466.0], [668266.5, 5325464.0], [668264.5, 5325461.5], [668265.0, 5325459.0], [668267.0, 5325457.5], [668270.5, 5325457.0], [668273.0, 5325454.0], [668276.0, 5325453.0], [668278.5, 5325450.0], [668280.5, 5325449.5], [668286.0, 5325443.5], [668293.5, 5325439.5], [668302.0, 5325439.5], [668311.3639000002, 5325438.2786], [668310.8074000003, 5325436.0526], [668309.2198999999, 5325429.7026], [668306.0449000001, 5325424.146400001], [668299.6948999995, 5325420.9713], [668294.9324000003, 5325417.002599999], [668290.9636000004, 5325411.4463], [668287.7885999996, 5325405.8901], [668284.6135999998, 5325400.333799999], [668279.0573000005, 5325396.3651], [668273.5011, 5325393.1899999995], [668269.5323000001, 5325388.4275], [668264.7697999999, 5325384.458799999], [668262.3886000002, 5325378.1088], [668264.7697999999, 5325372.5525], [668271.1198000005, 5325371.7588], [668276.6760999998, 5325374.140000001], [668283.0261000004, 5325374.933800001], [668289.3761, 5325375.727499999], [668294.9324000003, 5325378.1088], [668297.3136, 5325383.664999999], [668297.3136, 5325390.015000001], [668298.1074000001, 5325396.3651], [668302.0761000002, 5325401.9213], [668307.6323999995, 5325404.3026], [668313.1886999998, 5325408.271299999], [668317.9512, 5325412.2401], [668322.0208999999, 5325415.728399999], [668322.5, 5325409.5], [668319.5, 5325406.0], [668320.0, 5325401.5], [668319.0, 5325400.5], [668319.0, 5325393.0], [668322.5, 5325385.5], [668332.5, 5325375.0], [668337.0, 5325373.0], [668340.0, 5325369.5], [668343.0, 5325368.0], [668346.0, 5325368.0], [668349.0, 5325366.0], [668359.0, 5325366.0], [668361.0, 5325367.5], [668365.0, 5325367.5], [668368.5, 5325371.0], [668371.5, 5325372.0], [668375.5, 5325375.5], [668376.0, 5325378.5], [668378.5, 5325381.5], [668382.5, 5325382.5], [668385.0, 5325385.0], [668385.9693999998, 5325385.096899999], [668387.4601999996, 5325383.097999999], [668381.9039000003, 5325371.1918], [668381.9039000003, 5325365.238600001], [668385.8727000002, 5325356.507300001], [668390.3609253088, 5325348.5665], [668233.31985, 5325348.5665], [668233.31985, 5325475.06397], [668235.5, 5325475.5]]]}}, {"id": "2", "type": "Feature", "properties": {"attribute": "PSS4/EM1Dq", "wetland_type": "Freshwater Shrub/Emergent Wetland", "acres": 0.12553509, "hgm_code": "TEPTVR", "hgm_desc": "Terrene Peatland Vertical", "spcc_desc": "Open Bog", "cow_class1": "SS", "circ39_class": 8, "hgm_symbol": "Peatland", "_source_index": "1359080"}, "geometry": {"type": "Polygon", "coordinates": [[[668656.5, 5325350.0], [668660.0, 5325353.5], [668663.0, 5325354.0], [668663.3525, 5325354.2644], [668667.2018999998, 5325353.2379], [668673.1472598163, 5325348.5665], [668655.8628888888, 5325348.5665], [668656.5, 5325350.0]]]}}, {"id": "3", "type": "Feature", "properties": {"attribute": "PSS4Dq", "wetland_type": "Freshwater Shrub Wetland", "acres": 0.23147042, "hgm_code": "TEPTOU", "hgm_desc": "Terrene Peatland Outflow", "spcc_desc": "Open Bog", "cow_class1": "SS", "circ39_class": 8, "hgm_symbol": "Peatland", "_source_index": "1359140"}, "geometry": {"type": "Polygon", "coordinates": [[[668667.2018999998, 5325353.2379], [668663.3525, 5325354.2644], [668665.0, 5325355.5], [668666.0, 5325359.0], [668664.5, 5325360.5], [668664.0, 5325363.0], [668666.0, 5325372.0], [668668.5, 5325374.0], [668675.5, 5325374.5], [668684.5, 5325368.5], [668691.5, 5325367.5], [668694.0, 5325365.0], [668701.5, 5325362.0], [668704.5, 5325362.5], [668707.0, 5325365.0], [668711.5, 5325365.5], [668714.5, 5325363.5], [668715.0, 5325359.0], [668713.5, 5325357.0], [668709.0, 5325356.0], [668707.0, 5325353.0], [668702.0, 5325350.5], [668696.5, 5325351.5], [668693.5664999997, 5325348.5665], [668673.1472598163, 5325348.5665], [668667.2018999998, 5325353.2379]]]}}, {"id": "4", "type": "Feature", "properties": {"attribute": "PSS1D", "wetland_type": "Freshwater Shrub Wetland", "acres": 0.56378241, "hgm_code": "TEFLVR", "hgm_desc": "Terrene Flat Vertical", "spcc_desc": "Shrub Wetland", "cow_class1": "SS", "circ39_class": 6, "hgm_symbol": "Mineral Flat", "_source_index": "1359003"}, "geometry": {"type": "Polygon", "coordinates": [[[668385.8727000002, 5325356.507300001], [668381.9039000003, 5325365.238600001], [668381.9039000003, 5325371.1918], [668387.4601999996, 5325383.097999999], [668385.9693999998, 5325385.096899999], [668390.0, 5325385.5], [668393.5, 5325389.0], [668395.0, 5325394.0], [668397.5, 5325396.0], [668400.0, 5325395.5], [668402.5, 5325391.0], [668405.5, 5325388.0], [668411.5, 5325387.5], [668413.5, 5325386.0], [668420.0, 5325386.5], [668421.5, 5325388.5], [668422.0, 5325391.5], [668425.5, 5325394.0], [668443.0, 5325395.5], [668445.5, 5325393.5], [668448.0, 5325388.5], [668450.5, 5325386.0], [668452.0, 5325382.5], [668452.0, 5325379.5], [668450.5, 5325376.5], [668447.0, 5325374.0], [668446.0, 5325370.0], [668442.5, 5325367.0], [668437.0, 5325366.5], [668430.0, 5325359.5], [668424.0, 5325358.5], [668419.0, 5325353.0], [668412.0, 5325350.0], [668406.5, 5325350.0], [668404.5886666663, 5325348.5665], [668403.8350000028, 5325348.5665], [668399.5, 5325349.0], [668398.9219999997, 5325348.5665], [668390.3609253088, 5325348.5665], [668385.8727000002, 5325356.507300001]]]}}, {"id": "5", "type": "Feature", "properties": {"attribute": "PSS1D", "wetland_type": "Freshwater Shrub Wetland", "acres": 0.31110568, "hgm_code": "TEFLVR", "hgm_desc": "Terrene Flat Vertical", "spcc_desc": "Shrub Wetland", "cow_class1": "SS", "circ39_class": 6, "hgm_symbol": "Mineral Flat", "_source_index": "1359004"}, "geometry": {"type": "Polygon", "coordinates": [[[668731.5, 5325377.5], [668729.0, 5325376.5], [668723.0, 5325377.5], [668719.0, 5325381.5], [668718.0, 5325385.5], [668715.5, 5325387.0], [668713.0, 5325390.5], [668711.0, 5325391.0], [668707.5, 5325395.5], [668704.5, 5325396.5], [668701.0, 5325400.0], [668696.0, 5325402.0], [668694.0, 5325404.0], [668693.5, 5325407.0], [668695.0, 5325409.0], [668695.5, 5325412.5], [668698.0, 5325414.5], [668700.0, 5325414.5], [668700.0, 5325414.0], [668701.0, 5325414.0], [668703.5, 5325410.5], [668709.5, 5325409.5], [668713.0, 5325407.5], [668715.5, 5325404.5], [668719.5, 5325403.5], [668721.5, 5325401.0], [668726.0, 5325399.0], [668733.31985, 5325398.802166216], [668733.31985, 5325376.590075], [668731.5, 5325377.5]]]}}, {"id": "6", "type": "Feature", "properties": {"attribute": "PEM1C", "wetland_type": "Freshwater Emergent Wetland", "acres": 0.37372992, "hgm_code": "TEBAVR", "hgm_desc": "Terrene Basin Vertical", "spcc_desc": "Shallow Marsh", "cow_class1": "EM1", "circ39_class": 3, "hgm_symbol": "Depression", "_source_index": "1358252"}, "geometry": {"type": "Polygon", "coordinates": [[[668323.5, 5325437.0], [668324.0, 5325432.5], [668325.5, 5325430.5], [668326.5, 5325422.5], [668325.0, 5325419.0], [668322.0, 5325416.0], [668322.0208999999, 5325415.728399999], [668317.9512, 5325412.2401], [668313.1886999998, 5325408.271299999], [668307.6323999995, 5325404.3026], [668302.0761000002, 5325401.9213], [668298.1074000001, 5325396.3651], [668297.3136, 5325390.015000001], [668297.3136, 5325383.664999999], [668294.9324000003, 5325378.1088], [668289.3761, 5325375.727499999], [668283.0261000004, 5325374.933800001], [668276.6760999998, 5325374.140000001], [668271.1198000005, 5325371.7588], [668264.7697999999, 5325372.5525], [668262.3886000002, 5325378.1088], [668264.7697999999, 5325384.458799999], [668269.5323000001, 5325388.4275], [668273.5011, 5325393.1899999995], [668279.0573000005, 5325396.3651], [668284.6135999998, 5325400.333799999], [668287.7885999996, 5325405.8901], [668290.9636000004, 5325411.4463], [668294.9324000003, 5325417.002599999], [668299.6948999995, 5325420.9713], [668306.0449000001, 5325424.146400001], [668309.2198999999, 5325429.7026], [668310.8074000003, 5325436.0526], [668311.3639000002, 5325438.2786], [668313.5, 5325438.0], [668316.0, 5325440.0], [668320.0, 5325440.0], [668323.5, 5325437.0]]]}}, {"id": "7", "type": "Feature", "properties": {"attribute": "L2UBH", "wetland_type": "Lake", "acres": 63.45879322, "hgm_code": "LELKVR", "hgm_desc": "Lentic Lake Vertical", "spcc_desc": "Non-Vegetated Aquatic Community", "cow_class1": "UB", "circ39_class": 5, "hgm_symbol": "Lentic", "_source_index": "1358181"}, "geometry": {"type": "Polygon", "coordinates": [[[668725.5, 5325498.0], [668722.0, 5325499.5], [668717.5, 5325494.5], [668716.5, 5325494.5], [668716.5, 5325494.0], [668715.5, 5325493.5], [668709.0, 5325493.5], [668708.0, 5325494.0], [668706.0, 5325498.0], [668702.0, 5325502.5], [668701.5, 5325510.5], [668704.0, 5325513.5], [668703.5, 5325519.0], [668705.0, 5325521.0], [668705.0, 5325523.0], [668703.0, 5325526.5], [668700.5, 5325528.5], [668698.0, 5325529.0], [668694.0, 5325528.5], [668691.0, 5325528.5], [668690.0, 5325529.0], [668687.5, 5325532.5], [668685.0, 5325534.0], [668683.5, 5325538.5], [668675.0, 5325547.5], [668673.5, 5325551.0], [668670.0, 5325554.0], [668669.0, 5325556.0], [668669.0, 5325561.0], [668666.0, 5325564.5], [668666.0, 5325572.0], [668662.0, 5325578.0], [668662.0, 5325586.5], [668662.0, 5325587.0], [668664.0, 5325588.0], [668666.0, 5325591.5], [668667.0883, 5325591.741800001], [668670.5, 5325592.5], [668673.5, 5325596.5], [668680.0, 5325599.5], [668681.0, 5325604.0], [668684.0, 5325606.5], [668685.0, 5325610.5], [668689.5, 5325615.5], [668690.0, 5325617.5], [668690.5, 5325617.5], [668691.0, 5325617.5], [668693.0, 5325615.0], [668703.0, 5325615.0], [668706.0, 5325617.5], [668709.0, 5325618.0], [668710.5, 5325621.0], [668713.0, 5325623.0], [668721.5, 5325622.0], [668725.5, 5325624.0], [668731.5, 5325624.0], [668733.31985, 5325625.0009175], [668733.31985, 5325498.372373809], [668725.5, 5325498.0]]]}}, {"id": "8", "type": "Feature", "properties": {"attribute": "PSS1D", "wetland_type": "Freshwater Shrub Wetland", "acres": 0.19008581, "hgm_code": "TESLOU", "hgm_desc": "Terrene Slope Outflow", "spcc_desc": "Shrub Wetland", "cow_class1": "SS", "circ39_class": 6, "hgm_symbol": "Slope", "_source_index": "1359006"}, "geometry": {"type": "Polygon", "coordinates": [[[668594.0, 5325451.5], [668601.0, 5325451.5], [668603.5, 5325450.0], [668606.0, 5325447.0], [668603.5, 5325441.0], [668596.5, 5325440.0], [668591.0, 5325440.5], [668587.5, 5325438.5], [668584.5, 5325438.5], [668580.0, 5325436.5], [668575.0, 5325432.0], [668567.0, 5325430.0], [668564.0, 5325427.5], [668559.0, 5325427.5], [668557.0, 5325429.0], [668556.5, 5325434.0], [668555.5, 5325435.0], [668556.5, 5325440.5], [668559.5, 5325443.5], [668561.0, 5325447.5], [668563.0, 5325449.5], [668564.0, 5325450.0], [668566.0, 5325450.0], [668571.0, 5325449.5], [668573.5, 5325450.5], [668576.5, 5325453.5], [668585.0, 5325453.5], [668587.0, 5325455.0], [668589.5, 5325455.0], [668589.5, 5325454.5], [668594.0, 5325451.5]]]}}, {"id": "9", "type": "Feature", "properties": {"attribute": "PSS4/EM1Dq", "wetland_type": "Freshwater Shrub/Emergent Wetland", "acres": 1.1109858, "hgm_code": "TEPTVR", "hgm_desc": "Terrene Peatland Vertical", "spcc_desc": "Open Bog", "cow_class1": "SS", "circ39_class": 8, "hgm_symbol": "Peatland", "_source_index": "1359081"}, "geometry": {"type": "Polygon", "coordinates": [[[668452.5, 5325508.0], [668453.5, 5325508.0], [668455.0, 5325505.0], [668458.5, 5325503.0], [668463.5, 5325497.5], [668465.0, 5325494.0], [668465.0, 5325485.0], [668466.0, 5325484.0], [668465.5, 5325479.5], [668467.0, 5325476.0], [668467.0, 5325473.0], [668471.5, 5325468.0], [668476.5, 5325467.5], [668479.5, 5325465.5], [668487.0, 5325465.5], [668491.0, 5325467.0], [668505.0, 5325467.0], [668507.5, 5325464.5], [668508.0, 5325455.5], [668506.5, 5325452.5], [668506.5, 5325450.5], [668507.5, 5325449.5], [668507.0, 5325448.0], [668507.0, 5325444.0], [668507.5, 5325442.0], [668507.0, 5325436.0], [668505.0, 5325432.5], [668505.5, 5325430.5], [668505.5, 5325429.0], [668505.0, 5325426.0], [668499.0, 5325420.5], [668498.0, 5325417.5], [668490.5, 5325411.0], [668488.5, 5325411.0], [668485.5, 5325414.5], [668481.5, 5325415.5], [668475.0, 5325424.5], [668464.0, 5325431.0], [668463.5, 5325433.0], [668459.0, 5325438.0], [668457.5, 5325442.0], [668457.0, 5325453.0], [668452.5, 5325457.5], [668448.0, 5325458.0], [668447.0, 5325459.0], [668443.0, 5325458.5], [668441.0, 5325458.5], [668438.5, 5325459.0], [668433.0, 5325457.0], [668425.5, 5325457.0], [668424.5, 5325458.0], [668420.5, 5325458.0], [668419.5, 5325457.0], [668407.5, 5325457.5], [668400.5, 5325463.5], [668400.5, 5325471.5], [668402.0, 5325473.5], [668402.0, 5325476.5], [668404.5, 5325480.0], [668414.0, 5325482.5], [668418.0, 5325485.0], [668419.5, 5325487.5], [668427.0, 5325494.0], [668429.5, 5325494.5], [668432.0, 5325496.5], [668435.5, 5325497.0], [668437.5, 5325499.0], [668441.5, 5325500.5], [668443.0, 5325502.5], [668445.0, 5325503.0], [668450.0, 5325508.0], [668452.5, 5325508.5], [668452.5, 5325508.0]]]}}, {"id": "10", "type": "Feature", "properties": {"attribute": "PFO4/SS1Dq", "wetland_type": "Freshwater Forested/Shrub Wetland", "acres": 5.52196066, "hgm_code": "TEPTVR", "hgm_desc": "Terrene Peatland Vertical", "spcc_desc": "Coniferous Bog", "cow_class1": "FO", "circ39_class": 8, "hgm_symbol": "Peatland", "_source_index": "1359572"}, "geometry": {"type": "Polygon", "coordinates": [[[668236.0, 5325633.0], [668238.5, 5325633.5], [668241.5, 5325633.5], [668243.5, 5325633.0], [668246.5, 5325629.5], [668246.5, 5325626.5], [668244.0, 5325623.0], [668240.0, 5325622.0], [668238.0, 5325619.5], [668233.5, 5325617.0], [668233.31985, 5325615.9191], [668233.31985, 5325635.233458334], [668236.0, 5325633.0]]]}}, {"id": "11", "type": "Feature", "properties": {"attribute": "PSS1D", "wetland_type": "Freshwater Shrub Wetland", "acres": 1.2963603, "hgm_code": "TEFLVR", "hgm_desc": "Terrene Flat Vertical", "spcc_desc": "Shrub Wetland", "cow_class1": "SS", "circ39_class": 6, "hgm_symbol": "Mineral Flat", "_source_index": "1359008"}, "geometry": {"type": "Polygon", "coordinates": [[[668239.0, 5325521.5], [668240.0, 5325522.5], [668244.0, 5325522.0], [668245.0, 5325523.0], [668249.5, 5325523.0], [668253.0, 5325525.5], [668258.5, 5325526.0], [668261.0, 5325527.5], [668263.0, 5325530.0], [668263.0, 5325532.5], [668265.0, 5325535.0], [668265.5, 5325539.0], [668266.5, 5325540.0], [668266.5, 5325543.5], [668264.5, 5325545.5], [668263.5, 5325550.0], [668262.0, 5325552.0], [668262.5, 5325559.5], [668266.5, 5325562.5], [668268.0, 5325565.0], [668273.5, 5325567.5], [668275.0, 5325570.5], [668278.0, 5325572.0], [668281.0, 5325575.5], [668284.5, 5325576.0], [668286.5, 5325577.5], [668289.0, 5325577.5], [668291.5, 5325575.5], [668294.5, 5325575.5], [668296.5, 5325577.0], [668303.5, 5325577.5], [668305.5, 5325577.5], [668308.5, 5325577.0], [668311.0, 5325578.0], [668314.0, 5325581.5], [668315.0, 5325588.5], [668318.5, 5325591.5], [668319.0, 5325595.0], [668320.5, 5325597.0], [668320.5, 5325601.0], [668323.0, 5325603.5], [668325.0, 5325603.5], [668327.0, 5325602.0], [668329.0, 5325598.0], [668332.0, 5325595.5], [668332.5, 5325591.5], [668330.0, 5325586.0], [668325.5, 5325584.0], [668319.5, 5325578.0], [668319.0, 5325571.5], [668320.0, 5325570.5], [668320.0, 5325567.0], [668314.5, 5325557.5], [668314.5, 5325554.5], [668313.0, 5325552.0], [668313.0, 5325548.6436], [668304.0164000001, 5325542.4242], [668305.3393000001, 5325518.6116], [668290.0743000004, 5325500.293500001], [668284.5, 5325500.5], [668282.0, 5325502.5], [668277.0, 5325502.5], [668274.0, 5325504.5], [668272.0, 5325504.5], [668266.5, 5325508.0], [668262.0, 5325508.0], [668258.0, 5325504.0], [668249.5, 5325504.0], [668246.0, 5325501.5], [668242.5, 5325501.0], [668233.31985, 5325492.187056], [668233.31985, 5325522.31145], [668239.0, 5325521.5]]]}}, {"id": "12", "type": "Feature", "properties": {"attribute": "PFO4Dq", "wetland_type": "Freshwater Forested Wetland", "acres": 0.16793899, "hgm_code": "TEPTVR", "hgm_desc": "Terrene Peatland Vertical", "spcc_desc": "Coniferous Bog", "cow_class1": "FO", "circ39_class": 8, "hgm_symbol": "Peatland", "_source_index": "1358733"}, "geometry": {"type": "Polygon", "coordinates": [[[668653.0, 5325546.5], [668658.5, 5325541.5], [668659.0, 5325537.5], [668658.0, 5325536.5], [668656.5, 5325526.5], [668653.5, 5325524.5], [668646.0, 5325523.0], [668644.0, 5325524.5], [668638.0, 5325525.0], [668636.5, 5325526.5], [668635.5, 5325530.0], [668633.5, 5325531.5], [668632.5, 5325535.5], [668635.0, 5325538.5], [668634.5, 5325544.5], [668630.5, 5325548.0], [668630.0, 5325551.5], [668633.0, 5325554.5], [668636.5, 5325553.0], [668641.0, 5325553.0], [668645.0, 5325557.0], [668648.5, 5325557.5], [668648.5, 5325557.0], [668652.0, 5325555.0], [668653.0, 5325546.5]]]}}, {"id": "13", "type": "Feature", "properties": {"attribute": "PFO4Dq", "wetland_type": "Freshwater Forested Wetland", "acres": 0.38905545, "hgm_code": "TEPTOU", "hgm_desc": "Terrene Peatland Outflow", "spcc_desc": "Coniferous Bog", "cow_class1": "FO", "circ39_class": 8, "hgm_symbol": "Peatland", "_source_index": "1358735"}, "geometry": {"type": "Polygon", "coordinates": [[[668456.3322999999, 5325541.8133000005], [668449.9823000003, 5325542.607000001], [668444.426, 5325545.782], [668438.8698000005, 5325549.7508000005], [668438.6162, 5325549.962099999], [668439.0708999997, 5325550.303200001], [668438.8698000005, 5325550.544500001], [668436.4885, 5325556.1008], [668438.8698000005, 5325561.6570999995], [668444.426, 5325564.0383], [668449.1885000002, 5325568.800799999], [668449.9823000003, 5325575.150800001], [668449.9823000003, 5325582.294600001], [668449.9823000003, 5325588.6446], [668452.3635, 5325594.2009], [668457.1260000002, 5325598.169600001], [668462.6823000005, 5325600.550899999], [668467.4447999997, 5325604.5197], [668472.2072999999, 5325608.488399999], [668477.7636000002, 5325611.6634], [668480.8574999999, 5325613.431399999], [668481.4677999998, 5325608.091499999], [668470.3552000001, 5325579.5165], [668471.1490000002, 5325564.4352], [668474.2960000001, 5325553.0272], [668472.2072999999, 5325552.131999999], [668467.4447999997, 5325548.1633], [668462.6823000005, 5325542.607000001], [668456.3322999999, 5325541.8133000005]]]}}, {"id": "14", "type": "Feature", "properties": {"attribute": "PSS1D", "wetland_type": "Freshwater Shrub Wetland", "acres": 2.70818232, "hgm_code": "TEFLVR", "hgm_desc": "Terrene Flat Vertical", "spcc_desc": "Shrub Wetland", "cow_class1": "SS", "circ39_class": 6, "hgm_symbol": "Mineral Flat", "_source_index": "1359007"}, "geometry": {"type": "Polygon", "coordinates": [[[668669.0, 5325556.0], [668670.0, 5325554.0], [668673.5, 5325551.0], [668675.0, 5325547.5], [668683.5, 5325538.5], [668685.0, 5325534.0], [668687.5, 5325532.5], [668690.0, 5325529.0], [668691.0, 5325528.5], [668694.0, 5325528.5], [668698.0, 5325529.0], [668700.5, 5325528.5], [668703.0, 5325526.5], [668705.0, 5325523.0], [668705.0, 5325521.0], [668703.5, 5325519.0], [668704.0, 5325513.5], [668701.5, 5325510.5], [668702.0, 5325502.5], [668706.0, 5325498.0], [668708.0, 5325494.0], [668709.0, 5325493.5], [668715.5, 5325493.5], [668716.5, 5325494.0], [668716.5, 5325493.5], [668715.5, 5325492.5], [668716.0, 5325490.0], [668718.0, 5325488.5], [668724.5, 5325488.0], [668726.0, 5325486.0], [668725.5, 5325483.5], [668719.0, 5325477.5], [668711.5, 5325475.0], [668706.5, 5325468.0], [668700.5, 5325467.5], [668696.5, 5325464.5], [668693.0, 5325460.0], [668692.5, 5325456.5], [668690.5, 5325454.0], [668690.5, 5325451.0], [668692.0, 5325449.0], [668692.0, 5325444.0], [668690.5, 5325440.0], [668690.5, 5325434.5], [668689.0, 5325432.5], [668689.0, 5325430.0], [668692.5, 5325424.0], [668692.5, 5325418.5], [668693.5, 5325417.5], [668693.0, 5325415.0], [668687.5, 5325410.0], [668676.0, 5325410.5], [668666.0, 5325405.5], [668665.5, 5325397.0], [668667.0, 5325394.0], [668667.0, 5325390.0], [668663.0, 5325384.5], [668657.0, 5325384.0], [668650.0, 5325385.5], [668646.5, 5325384.5], [668644.0, 5325381.0], [668642.0, 5325380.0], [668639.5, 5325372.0], [668637.0, 5325369.5], [668631.5, 5325369.5], [668627.5, 5325373.5], [668624.5, 5325375.0], [668624.0, 5325376.0], [668624.0, 5325378.0], [668624.5, 5325381.5], [668627.0, 5325384.5], [668627.5, 5325393.0], [668629.5, 5325395.5], [668629.5, 5325406.5], [668638.5, 5325417.0], [668639.0, 5325422.0], [668641.5, 5325425.0], [668641.5, 5325428.5], [668643.0, 5325430.5], [668643.0, 5325435.0], [668639.0, 5325441.0], [668634.0, 5325442.0], [668629.0, 5325446.5], [668624.5, 5325447.5], [668622.5, 5325450.0], [668622.5, 5325454.0], [668625.0, 5325460.0], [668638.5, 5325467.0], [668640.5, 5325470.0], [668644.0, 5325472.5], [668644.5, 5325476.5], [668647.5, 5325480.0], [668649.5, 5325489.5], [668648.5, 5325490.5], [668648.0, 5325494.5], [668642.5, 5325498.0], [668637.5, 5325498.0], [668635.0, 5325496.0], [668632.0, 5325496.0], [668631.0, 5325495.0], [668627.5, 5325495.0], [668625.5, 5325496.5], [668625.0, 5325502.0], [668626.0, 5325503.0], [668626.0, 5325505.5], [668628.5, 5325509.5], [668631.0, 5325510.0], [668633.5, 5325509.0], [668635.5, 5325510.5], [668637.0, 5325513.5], [668637.0, 5325520.5], [668634.5, 5325523.0], [668629.0, 5325523.0], [668627.0, 5325524.0], [668623.5, 5325527.5], [668613.5, 5325527.5], [668609.0, 5325529.5], [668606.5, 5325533.0], [668606.0, 5325538.5], [668609.5, 5325543.5], [668610.0, 5325547.0], [668612.5, 5325549.5], [668612.5, 5325554.0], [668615.0, 5325558.0], [668618.0, 5325558.5], [668620.0, 5325560.5], [668624.0, 5325562.0], [668627.5, 5325562.0], [668631.0, 5325565.0], [668635.0, 5325566.0], [668646.0, 5325576.0], [668646.5, 5325579.0], [668648.0, 5325581.0], [668653.0, 5325583.5], [668656.5, 5325584.0], [668659.5, 5325586.5], [668662.0, 5325586.5], [668662.0, 5325578.0], [668666.0, 5325572.0], [668666.0, 5325564.5], [668669.0, 5325561.0], [668669.0, 5325556.0]], [[668641.0, 5325553.0], [668636.5, 5325553.0], [668633.0, 5325554.5], [668630.0, 5325551.5], [668630.5, 5325548.0], [668634.5, 5325544.5], [668635.0, 5325538.5], [668632.5, 5325535.5], [668633.5, 5325531.5], [668635.5, 5325530.0], [668636.5, 5325526.5], [668638.0, 5325525.0], [668644.0, 5325524.5], [668646.0, 5325523.0], [668653.5, 5325524.5], [668656.5, 5325526.5], [668658.0, 5325536.5], [668659.0, 5325537.5], [668658.5, 5325541.5], [668653.0, 5325546.5], [668652.0, 5325555.0], [668648.5, 5325557.0], [668648.5, 5325557.5], [668645.0, 5325557.0], [668641.0, 5325553.0]]]}}, {"id": "15", "type": "Feature", "properties": {"attribute": "PSS1C", "wetland_type": "Freshwater Shrub Wetland", "acres": 0.86080798, "hgm_code": "TEBAVR", "hgm_desc": "Terrene Basin Vertical", "spcc_desc": "Shrub Wetland", "cow_class1": "SS", "circ39_class": 6, "hgm_symbol": "Depression", "_source_index": "1359052"}, "geometry": {"type": "Polygon", "coordinates": [[[668323.0, 5325523.0], [668325.0, 5325523.0], [668327.5, 5325525.0], [668330.0, 5325524.5], [668333.5, 5325524.5], [668336.0, 5325525.0], [668338.0, 5325524.0], [668341.0, 5325518.0], [668341.0, 5325516.0], [668343.0, 5325514.0], [668344.0, 5325511.0], [668346.0, 5325509.0], [668349.0, 5325508.0], [668352.0, 5325505.0], [668352.5, 5325503.0], [668356.5, 5325500.0], [668356.5, 5325499.0], [668357.0, 5325499.0], [668357.0, 5325498.5], [668362.5, 5325493.0], [668363.0, 5325492.0], [668363.0, 5325490.5], [668362.5, 5325489.5], [668359.0, 5325487.0], [668353.0, 5325486.5], [668352.0, 5325487.5], [668350.0, 5325487.5], [668347.5, 5325485.0], [668348.5, 5325477.0], [668349.5, 5325476.0], [668349.5, 5325474.0], [668348.0, 5325472.0], [668348.0, 5325465.5], [668349.5, 5325463.5], [668352.5, 5325462.5], [668356.0, 5325457.5], [668353.5, 5325451.0], [668351.5, 5325449.5], [668347.5, 5325450.5], [668346.5, 5325452.5], [668340.0, 5325458.5], [668339.0, 5325462.0], [668334.5, 5325466.5], [668329.0, 5325467.0], [668323.0, 5325474.0], [668318.5, 5325474.0], [668315.5, 5325471.5], [668315.0, 5325468.5], [668316.0, 5325466.0], [668313.5, 5325463.5], [668312.0, 5325464.0], [668310.0, 5325464.0], [668298.0, 5325463.5], [668293.0, 5325466.5], [668291.0, 5325469.0], [668292.0, 5325475.5], [668293.5, 5325477.5], [668293.5, 5325482.5], [668292.0, 5325484.5], [668292.5, 5325489.0], [668293.0, 5325489.0], [668295.0, 5325493.0], [668298.0, 5325494.5], [668299.5, 5325496.5], [668298.0, 5325500.0], [668290.0743000004, 5325500.293500001], [668305.3393000001, 5325518.6116], [668304.0164000001, 5325542.4242], [668313.0, 5325548.6436], [668313.0, 5325547.5], [668315.0, 5325545.0], [668316.0, 5325539.5], [668313.5, 5325536.0], [668311.0, 5325534.5], [668310.5, 5325532.0], [668314.0, 5325527.5], [668320.0, 5325526.0], [668323.0, 5325523.0]]]}}, {"id": "16", "type": "Feature", "properties": {"attribute": "PFO4/EM1Dq", "wetland_type": "Freshwater Forested/Emergent Wetland", "acres": 0.59696007, "hgm_code": "TEPTOU", "hgm_desc": "Terrene Peatland Outflow", "spcc_desc": "Coniferous Bog", "cow_class1": "FO", "circ39_class": 8, "hgm_symbol": "Peatland", "_source_index": "1358527"}, "geometry": {"type": "Polygon", "coordinates": [[[668731.5, 5325624.0], [668725.5, 5325624.0], [668721.5, 5325622.0], [668713.0, 5325623.0], [668710.5, 5325621.0], [668709.0, 5325618.0], [668706.0, 5325617.5], [668703.0, 5325615.0], [668693.0, 5325615.0], [668691.0, 5325617.5], [668690.5, 5325617.5], [668690.0, 5325617.5], [668689.5, 5325615.5], [668685.0, 5325610.5], [668684.0, 5325606.5], [668681.0, 5325604.0], [668680.0, 5325599.5], [668673.5, 5325596.5], [668670.5, 5325592.5], [668667.0883, 5325591.741800001], [668666.8969999999, 5325592.1724], [668666.8969999999, 5325600.1099], [668674.1730000004, 5325607.386], [668679.4647000004, 5325611.354699999], [668684.7564000003, 5325618.630799999], [668697.9856000002, 5325631.1985], [668698.7921000002, 5325630.8961], [668700.0, 5325631.5], [668703.5, 5325631.5], [668708.5, 5325635.0], [668711.0, 5325638.5], [668713.0, 5325639.0], [668716.0, 5325642.0], [668717.0, 5325644.5], [668722.5, 5325649.5], [668723.5, 5325652.5], [668728.0, 5325657.0], [668731.5, 5325658.0], [668732.5, 5325659.5], [668733.31985, 5325659.7732833335], [668733.31985, 5325625.0009175], [668731.5, 5325624.0]]]}}, {"id": "17", "type": "Feature", "properties": {"attribute": "PEM1C", "wetland_type": "Freshwater Emergent Wetland", "acres": 0.35576951, "hgm_code": "TEBAVR", "hgm_desc": "Terrene Basin Vertical", "spcc_desc": "Shallow Marsh", "cow_class1": "EM1", "circ39_class": 3, "hgm_symbol": "Depression", "_source_index": "1358253"}, "geometry": {"type": "Polygon", "coordinates": [[[668490.7062999997, 5325628.757999999], [668496.5489999996, 5325631.904100001], [668508.4552999996, 5325634.2853], [668517.1865999997, 5325631.110300001], [668518.6157999998, 5325629.6811], [668515.5, 5325627.5], [668514.5, 5325624.5], [668512.0, 5325622.0], [668502.5, 5325617.0], [668496.5, 5325610.5], [668492.3202, 5325610.035599999], [668490.4636000004, 5325608.488399999], [668488.8761, 5325602.1384], [668488.8761, 5325594.9946], [668489.6699000001, 5325588.6446], [668492.0510999998, 5325582.294600001], [668494.4324000003, 5325576.738299999], [668496.8136, 5325571.1821], [668493.6386000002, 5325565.6258000005], [668488.8761, 5325561.6570999995], [668482.5261000004, 5325558.482100001], [668477.7636000002, 5325554.5133], [668474.2960000001, 5325553.0272], [668471.1490000002, 5325564.4352], [668470.3552000001, 5325579.5165], [668481.4677999998, 5325608.091499999], [668480.8574999999, 5325613.431399999], [668483.3197999997, 5325614.838400001], [668487.2885999996, 5325619.6009], [668488.0823999997, 5325626.7447], [668488.0823999997, 5325633.094699999], [668486.4949000003, 5325639.444700001], [668486.1789999995, 5325641.971899999], [668490.0, 5325639.0], [668490.7062999997, 5325628.757999999]]]}}, {"id": "18", "type": "Feature", "properties": {"attribute": "PSS1D", "wetland_type": "Freshwater Shrub Wetland", "acres": 2.33342674, "hgm_code": "TEFLVR", "hgm_desc": "Terrene Flat Vertical", "spcc_desc": "Shrub Wetland", "cow_class1": "SS", "circ39_class": 6, "hgm_symbol": "Mineral Flat", "_source_index": "1359012"}, "geometry": {"type": "Polygon", "coordinates": [[[668578.5, 5325726.0], [668577.0, 5325722.0], [668583.5, 5325716.5], [668607.0, 5325716.0], [668609.0, 5325714.5], [668610.1103999997, 5325714.5], [668610.0554999998, 5325714.4542], [668606.0867999997, 5325708.898], [668602.1179999998, 5325703.341700001], [668597.3554999996, 5325699.373], [668591.7992000002, 5325696.198000001], [668585.4491999997, 5325694.6105], [668579.0992, 5325693.023], [668573.5428999998, 5325689.8478999995], [668565.6053999998, 5325689.8478999995], [668559.2554000001, 5325689.8478999995], [668552.9053999996, 5325689.8478999995], [668545.7615999999, 5325689.8478999995], [668539.4116000002, 5325689.8478999995], [668533.8553999998, 5325687.466700001], [668530.6804, 5325681.9103999995], [668527.5054000001, 5325676.3542], [668527.5054000001, 5325670.0042], [668526.7116, 5325663.654100001], [668526.7116, 5325657.304099999], [668529.8865999999, 5325651.7479], [668535.4429000001, 5325654.922900001], [668540.9990999997, 5325657.304099999], [668547.3491000002, 5325661.2729], [668554.4929, 5325662.860400001], [668561.6366999997, 5325663.654100001], [668567.9867000002, 5325663.654100001], [668575.9242000002, 5325663.654100001], [668583.8617000002, 5325663.654100001], [668585.6061000004, 5325663.0], [668585.0, 5325663.0], [668584.0, 5325662.0], [668581.0, 5325662.0], [668578.5, 5325660.0], [668576.5, 5325660.5], [668574.5, 5325660.5], [668573.5, 5325660.0], [668572.0, 5325658.0], [668572.0, 5325653.0], [668569.0, 5325647.5], [668568.5, 5325644.5], [668566.5, 5325643.0], [668561.5, 5325642.0], [668560.5, 5325640.5], [668557.5, 5325639.5], [668555.5, 5325637.0], [668545.5, 5325636.5], [668544.5, 5325635.5], [668534.0, 5325636.0], [668533.0, 5325635.0], [668527.0, 5325636.5], [668522.5, 5325634.5], [668520.5, 5325631.0], [668518.6157999998, 5325629.6811], [668517.1865999997, 5325631.110300001], [668508.4552999996, 5325634.2853], [668496.5489999996, 5325631.904100001], [668490.7062999997, 5325628.757999999], [668490.0, 5325639.0], [668486.1789999995, 5325641.971899999], [668485.5, 5325642.5], [668484.0, 5325645.0], [668478.0, 5325648.5], [668474.0, 5325657.5], [668469.0, 5325661.0], [668467.0, 5325664.5], [668463.0, 5325665.5], [668455.5, 5325670.5], [668448.5, 5325671.0], [668447.0, 5325673.0], [668442.0, 5325675.5], [668441.0, 5325677.0], [668437.5, 5325678.0], [668434.5, 5325681.5], [668431.5, 5325683.0], [668431.0, 5325688.5], [668429.0, 5325691.0], [668429.0, 5325695.0], [668435.0, 5325701.0], [668438.0, 5325702.0], [668440.5, 5325705.5], [668443.5, 5325706.5], [668446.0, 5325709.0], [668461.0, 5325709.0], [668463.5, 5325711.0], [668467.5, 5325711.0], [668470.0, 5325709.0], [668474.0, 5325710.0], [668485.0, 5325710.0], [668488.5, 5325712.0], [668492.5, 5325716.5], [668496.0, 5325716.5], [668497.0, 5325717.5], [668502.5, 5325717.0], [668509.5, 5325718.5], [668511.5, 5325720.0], [668513.0, 5325723.0], [668517.0, 5325723.5], [668519.0, 5325725.0], [668527.0, 5325726.0], [668529.0, 5325727.5], [668533.0, 5325727.5], [668534.8981999997, 5325725.918099999], [668536.0, 5325725.0], [668541.0, 5325725.0], [668545.0, 5325727.5], [668550.5, 5325728.5], [668554.0, 5325731.0], [668561.5, 5325730.0], [668563.5, 5325731.5], [668569.5, 5325732.0], [668576.0, 5325731.5], [668578.0, 5325730.0], [668578.5, 5325726.0]]]}}, {"id": "19", "type": "Feature", "properties": {"attribute": "PEM1C", "wetland_type": "Freshwater Emergent Wetland", "acres": 0.86414021, "hgm_code": "TEBAVR", "hgm_desc": "Terrene Basin Vertical", "spcc_desc": "Shallow Marsh", "cow_class1": "EM1", "circ39_class": 3, "hgm_symbol": "Depression", "_source_index": "1358254"}, "geometry": {"type": "Polygon", "coordinates": [[[668625.5, 5325704.5], [668629.0, 5325704.5], [668630.0, 5325703.5], [668638.5, 5325703.5], [668642.0, 5325705.5], [668643.2167999996, 5325707.325099999], [668644.1868000003, 5325706.5167], [668645.4249, 5325704.0405], [668647.3618000001, 5325700.1667], [668648.1556000002, 5325693.8167], [668647.7304999996, 5325690.4156], [668647.0, 5325691.0], [668642.0, 5325691.0], [668639.5, 5325689.0], [668635.5, 5325688.5], [668619.5, 5325674.0], [668613.0, 5325672.5], [668606.0, 5325667.5], [668603.0, 5325667.5], [668600.0, 5325665.0], [668596.0, 5325665.0], [668593.5, 5325663.0], [668585.6061000004, 5325663.0], [668583.8617000002, 5325663.654100001], [668575.9242000002, 5325663.654100001], [668567.9867000002, 5325663.654100001], [668561.6366999997, 5325663.654100001], [668554.4929, 5325662.860400001], [668547.3491000002, 5325661.2729], [668540.9990999997, 5325657.304099999], [668535.4429000001, 5325654.922900001], [668529.8865999999, 5325651.7479], [668526.7116, 5325657.304099999], [668526.7116, 5325663.654100001], [668527.5054000001, 5325670.0042], [668527.5054000001, 5325676.3542], [668530.6804, 5325681.9103999995], [668533.8553999998, 5325687.466700001], [668539.4116000002, 5325689.8478999995], [668545.7615999999, 5325689.8478999995], [668552.9053999996, 5325689.8478999995], [668559.2554000001, 5325689.8478999995], [668565.6053999998, 5325689.8478999995], [668573.5428999998, 5325689.8478999995], [668579.0992, 5325693.023], [668585.4491999997, 5325694.6105], [668591.7992000002, 5325696.198000001], [668597.3554999996, 5325699.373], [668602.1179999998, 5325703.341700001], [668606.0867999997, 5325708.898], [668610.0554999998, 5325714.4542], [668610.1103999997, 5325714.5], [668612.5, 5325714.5], [668614.5, 5325713.0], [668618.5, 5325712.5], [668620.5, 5325710.5], [668621.5, 5325707.5], [668625.5, 5325704.5]]]}}, {"id": "20", "type": "Feature", "properties": {"attribute": "PSS1D", "wetland_type": "Freshwater Shrub Wetland", "acres": 3.39489761, "hgm_code": "TESLOU", "hgm_desc": "Terrene Slope Outflow", "spcc_desc": "Shrub Wetland", "cow_class1": "SS", "circ39_class": 6, "hgm_symbol": "Slope", "_source_index": "1359015"}, "geometry": {"type": "Polygon", "coordinates": [[[668239.3698000005, 5325722.200099999], [668245.9844000004, 5325722.200099999], [668252.5990000004, 5325721.5386], [668258.5521, 5325720.2157000005], [668258.8344999999, 5325720.2157000005], [668261.4881999996, 5325720.9739], [668267.8382000001, 5325723.090600001], [668275.2466000002, 5325723.090600001], [668281.5965999998, 5325723.090600001], [668289.0049, 5325723.090600001], [668295.3548999997, 5325723.090600001], [668301.7050000001, 5325723.090600001], [668308.0549999997, 5325723.090600001], [668314.4050000003, 5325723.090600001], [668320.7549999999, 5325723.090600001], [668327.1050000004, 5325723.090600001], [668333.4550000001, 5325723.090600001], [668339.8049999997, 5325723.090600001], [668346.1550000003, 5325725.2072], [668352.5050999997, 5325726.2656], [668357.7966999998, 5325729.4406], [668364.1467000004, 5325729.4406], [668370.4967999998, 5325729.4406], [668376.8468000004, 5325729.4406], [668383.1968, 5325729.4406], [668389.5467999997, 5325729.4406], [668395.8968000002, 5325729.4406], [668402.2467999998, 5325729.4406], [668408.5968000004, 5325729.4406], [668416.0051999995, 5325728.382200001], [668410.7134999996, 5325724.1489], [668407.5384999998, 5325718.8572], [668401.1885000002, 5325718.8572], [668394.8384999996, 5325716.740599999], [668388.4885, 5325713.5655000005], [668382.1383999996, 5325710.3905], [668379.0092000002, 5325709.869000001], [668376.0, 5325706.0], [668372.5, 5325703.5], [668371.5, 5325698.5], [668365.0, 5325695.5], [668356.0, 5325696.5], [668350.0, 5325699.0], [668342.0, 5325698.0], [668339.5, 5325700.0], [668329.5, 5325700.0], [668326.0, 5325697.5], [668322.0, 5325698.0], [668320.0, 5325698.0], [668314.5, 5325697.5], [668310.5, 5325699.0], [668295.0, 5325698.5], [668293.0, 5325697.0], [668285.0, 5325697.0], [668278.5, 5325694.5], [668276.0, 5325692.5], [668268.5, 5325692.5], [668265.0, 5325694.5], [668264.4314000001, 5325695.2108], [668263.8437999999, 5325695.0802], [668257.2292, 5325695.0802], [668250.6146, 5325695.0802], [668244.0, 5325695.0802], [668237.3854, 5325695.0802], [668233.31985, 5325694.673681878], [668233.31985, 5325722.805040122], [668239.3698000005, 5325722.200099999]]]}}, {"id": "21", "type": "Feature", "properties": {"attribute": "PSS1D", "wetland_type": "Freshwater Shrub Wetland", "acres": 2.26664313, "hgm_code": "TEFLVR", "hgm_desc": "Terrene Flat Vertical", "spcc_desc": "Shrub Wetland", "cow_class1": "SS", "circ39_class": 6, "hgm_symbol": "Mineral Flat", "_source_index": "1359018"}, "geometry": {"type": "Polygon", "coordinates": [[[668733.0, 5325762.0], [668731.0, 5325759.5], [668730.0, 5325759.0], [668727.0, 5325759.0], [668725.5, 5325759.5], [668719.0, 5325753.5], [668716.5, 5325753.0], [668714.0, 5325751.0], [668712.0, 5325745.5], [668716.5, 5325736.0], [668716.0, 5325732.0], [668710.5, 5325727.0], [668709.5, 5325723.5], [668701.0, 5325712.5], [668697.0, 5325703.5], [668697.0, 5325696.0], [668699.0, 5325694.0], [668700.5, 5325690.0], [668703.5, 5325687.5], [668704.0, 5325684.5], [668702.5, 5325682.5], [668697.0, 5325679.5], [668691.0, 5325679.0], [668689.0, 5325676.0], [668689.0, 5325671.5], [668687.5, 5325669.5], [668681.5, 5325666.5], [668679.5, 5325664.0], [668676.0, 5325663.5], [668673.5, 5325661.5], [668669.0, 5325661.5], [668665.5, 5325658.5], [668660.0, 5325657.5], [668658.0, 5325659.0], [668655.5, 5325659.0], [668654.5, 5325658.0], [668649.5, 5325658.0], [668647.5, 5325656.5], [668643.0, 5325657.0], [668638.5, 5325652.0], [668627.5, 5325649.0], [668625.5, 5325650.5], [668625.0, 5325653.0], [668629.5, 5325658.0], [668630.0, 5325661.0], [668633.5, 5325666.0], [668638.5, 5325666.5], [668640.5, 5325669.0], [668642.5, 5325669.5], [668644.5, 5325672.5], [668648.0, 5325674.5], [668655.0, 5325674.0], [668658.0, 5325675.5], [668659.5, 5325677.5], [668660.0, 5325680.5], [668659.0, 5325682.5], [668655.0, 5325686.0], [668652.0, 5325687.0], [668647.7304999996, 5325690.4156], [668648.1556000002, 5325693.8167], [668647.3618000001, 5325700.1667], [668645.4249, 5325704.0405], [668647.7806000002, 5325704.0405], [668659.4222999997, 5325715.6822], [668665.7723000003, 5325729.4406], [668670.0056999996, 5325745.3156], [668676.8470999999, 5325764.1294], [668679.0, 5325767.0], [668682.5, 5325768.5], [668687.0, 5325768.5], [668693.0, 5325772.5], [668696.0, 5325773.0], [668701.0, 5325779.0], [668703.0, 5325779.5], [668705.0, 5325782.5], [668706.0, 5325782.5], [668710.5, 5325787.0], [668711.5, 5325790.0], [668713.5, 5325792.0], [668714.0, 5325795.0], [668716.0, 5325797.0], [668716.0, 5325800.0], [668717.5, 5325802.0], [668718.0, 5325805.0], [668723.5, 5325809.5], [668724.0, 5325811.5], [668731.5, 5325818.5], [668733.31985, 5325822.1397], [668733.31985, 5325763.59925], [668733.0, 5325762.0]]]}}, {"id": "22", "type": "Feature", "properties": {"attribute": "PSS4/EM1Dq", "wetland_type": "Freshwater Shrub/Emergent Wetland", "acres": 1.10646596, "hgm_code": "TEPTOU", "hgm_desc": "Terrene Peatland Outflow", "spcc_desc": "Open Bog", "cow_class1": "SS", "circ39_class": 8, "hgm_symbol": "Peatland", "_source_index": "1359082"}, "geometry": {"type": "Polygon", "coordinates": [[[668731.5, 5325818.5], [668724.0, 5325811.5], [668723.5, 5325809.5], [668718.0, 5325805.0], [668717.5, 5325802.0], [668716.0, 5325800.0], [668716.0, 5325797.0], [668714.0, 5325795.0], [668713.5, 5325792.0], [668711.5, 5325790.0], [668710.5, 5325787.0], [668706.0, 5325782.5], [668705.0, 5325782.5], [668703.0, 5325779.5], [668701.0, 5325779.0], [668696.0, 5325773.0], [668693.0, 5325772.5], [668687.0, 5325768.5], [668682.5, 5325768.5], [668679.0, 5325767.0], [668676.8470999999, 5325764.1294], [668670.0056999996, 5325745.3156], [668665.7723000003, 5325729.4406], [668659.4222999997, 5325715.6822], [668647.7806000002, 5325704.0405], [668645.4249, 5325704.0405], [668644.1868000003, 5325706.5167], [668643.2167999996, 5325707.325099999], [668642.0, 5325705.5], [668638.5, 5325703.5], [668630.0, 5325703.5], [668629.0, 5325704.5], [668625.5, 5325704.5], [668621.5, 5325707.5], [668620.5, 5325710.5], [668618.5, 5325712.5], [668614.5, 5325713.0], [668612.5, 5325714.5], [668610.1103999997, 5325714.5], [668609.0, 5325714.5], [668607.0, 5325716.0], [668583.5, 5325716.5], [668577.0, 5325722.0], [668578.5, 5325726.0], [668578.0, 5325730.0], [668576.0, 5325731.5], [668569.5, 5325732.0], [668563.5, 5325731.5], [668561.5, 5325730.0], [668554.0, 5325731.0], [668550.5, 5325728.5], [668545.0, 5325727.5], [668541.0, 5325725.0], [668536.0, 5325725.0], [668534.8981999997, 5325725.918099999], [668536.6553999996, 5325727.323899999], [668541.9471000005, 5325730.4989], [668547.2388000004, 5325733.673900001], [668553.5888, 5325735.7906], [668559.9387999997, 5325736.8489], [668566.2888000002, 5325738.965600001], [668573.6972000003, 5325741.0823], [668580.0471999999, 5325744.257300001], [668584.2805000003, 5325749.548900001], [668587.4555000002, 5325754.840600001], [668590.6305, 5325760.132300001], [668590.6305, 5325766.4823], [668588.5138999997, 5325772.8323], [668582.1638000002, 5325773.890699999], [668578.9888000004, 5325779.1822999995], [668582.1638000002, 5325784.473999999], [668588.5138999997, 5325786.5907000005], [668594.8639000002, 5325786.5907000005], [668598.0389, 5325781.299000001], [668600.1555000003, 5325774.948999999], [668601.2138999999, 5325768.598999999], [668601.2138999999, 5325762.249], [668602.2721999995, 5325755.899], [668606.5055999998, 5325750.6073], [668610.7389000002, 5325745.3156], [668617.0888999999, 5325744.257300001], [668623.4389000004, 5325744.257300001], [668629.7889, 5325744.257300001], [668636.1390000004, 5325743.198899999], [668642.4890000001, 5325743.198899999], [668648.8389999997, 5325744.257300001], [668655.1890000002, 5325746.3739], [668659.4222999997, 5325751.6656], [668663.6557, 5325756.9573], [668668.9474, 5325760.132300001], [668674.2390000001, 5325764.365599999], [668679.5307, 5325768.598999999], [668685.8806999996, 5325770.7157000005], [668691.1723999996, 5325773.890699999], [668696.4641000004, 5325778.124], [668699.6391000003, 5325783.4157], [668704.9308000002, 5325787.649], [668707.0473999996, 5325793.999], [668709.1640999997, 5325800.349099999], [668711.2807999998, 5325806.699100001], [668716.5724, 5325809.8741], [668721.8640999999, 5325814.1074], [668725.0390999997, 5325819.3991], [668725.0390999997, 5325825.7491], [668728.2141000004, 5325831.0408], [668733.31985, 5325835.125342108], [668733.31985, 5325822.1397], [668731.5, 5325818.5]]]}}, {"id": "23", "type": "Feature", "properties": {"attribute": "PSS1/EM1D", "wetland_type": "Freshwater Shrub/Emergent Wetland", "acres": 1.33758143, "hgm_code": "TEFLVR", "hgm_desc": "Terrene Flat Vertical", "spcc_desc": "Shrub Wetland", "cow_class1": "SS", "circ39_class": 6, "hgm_symbol": "Mineral Flat", "_source_index": "1358811"}, "geometry": {"type": "Polygon", "coordinates": [[[668234.0, 5325781.0], [668248.5, 5325781.0], [668252.0, 5325782.5], [668254.0, 5325781.0], [668256.5, 5325781.0], [668259.0, 5325783.5], [668263.5, 5325784.5], [668268.0, 5325788.0], [668282.5, 5325788.0], [668284.5, 5325786.5], [668302.5, 5325786.5], [668304.5, 5325785.0], [668308.0, 5325785.0], [668312.5, 5325782.5], [668322.5, 5325782.5], [668329.5, 5325787.5], [668331.5, 5325791.5], [668340.0, 5325795.0], [668345.0, 5325799.0], [668354.5, 5325799.0], [668355.5, 5325798.0], [668360.0, 5325798.0], [668361.0, 5325797.0], [668364.0, 5325797.5], [668368.0, 5325802.5], [668371.5, 5325803.5], [668373.0, 5325805.0], [668375.0, 5325808.0], [668376.5, 5325814.5], [668379.5, 5325818.0], [668382.5, 5325819.0], [668384.5, 5325822.0], [668389.5, 5325822.5], [668393.5, 5325824.5], [668396.0, 5325827.0], [668399.0, 5325827.0], [668401.5, 5325829.0], [668405.0, 5325829.5], [668406.5, 5325831.5], [668407.0, 5325836.0], [668409.5, 5325839.5], [668417.5, 5325840.0], [668420.0, 5325842.0], [668422.5, 5325842.0], [668427.0, 5325846.5], [668442.0, 5325846.5], [668444.0, 5325845.0], [668444.5, 5325842.5], [668441.0, 5325839.0], [668428.5, 5325839.5], [668427.5, 5325840.5], [668425.5, 5325840.5], [668418.5, 5325836.0], [668417.5, 5325831.0], [668418.0, 5325827.0], [668421.0, 5325824.5], [668425.0, 5325824.5], [668429.5, 5325827.5], [668431.0, 5325827.5], [668433.5, 5325825.0], [668433.0, 5325820.5], [668429.5, 5325817.0], [668429.0, 5325812.5], [668426.5, 5325810.0], [668425.5, 5325806.5], [668423.5, 5325805.0], [668420.0, 5325805.0], [668416.0, 5325801.5], [668410.0, 5325799.0], [668406.5, 5325792.5], [668402.5, 5325788.0], [668401.5, 5325788.0], [668401.5, 5325787.5], [668396.0, 5325788.0], [668392.5, 5325795.5], [668391.5, 5325796.0], [668389.5, 5325796.0], [668387.5, 5325795.5], [668385.5, 5325794.0], [668383.0, 5325789.0], [668382.5, 5325782.0], [668381.5, 5325781.0], [668383.0, 5325775.5], [668381.5, 5325773.5], [668380.5, 5325773.0], [668378.5, 5325773.0], [668376.5, 5325773.5], [668372.5, 5325769.0], [668370.5, 5325768.0], [668365.5, 5325768.0], [668362.5, 5325765.0], [668358.0, 5325764.5], [668355.5, 5325762.5], [668353.0, 5325763.0], [668350.0, 5325767.0], [668346.0, 5325769.5], [668338.5, 5325771.5], [668333.5, 5325769.0], [668333.0, 5325766.0], [668331.5, 5325764.0], [668326.0, 5325763.0], [668321.0, 5325758.5], [668314.5, 5325758.0], [668312.5, 5325756.5], [668308.5, 5325757.0], [668303.0, 5325753.0], [668301.0, 5325753.0], [668296.5, 5325755.5], [668296.0, 5325766.0], [668294.5, 5325769.0], [668291.0, 5325771.0], [668288.5, 5325774.0], [668284.5, 5325775.5], [668282.0, 5325775.5], [668279.0, 5325773.5], [668277.0, 5325771.0], [668276.5, 5325767.5], [668274.5, 5325766.0], [668273.0, 5325766.5], [668270.0, 5325766.5], [668268.5, 5325766.0], [668266.0, 5325767.0], [668263.0, 5325764.5], [668254.5, 5325764.5], [668252.0, 5325762.0], [668248.5, 5325760.5], [668248.5, 5325760.0], [668244.5, 5325761.0], [668242.5, 5325765.5], [668240.5, 5325767.0], [668237.0, 5325766.5], [668236.0, 5325767.5], [668233.31985, 5325767.5], [668233.31985, 5325780.215211539], [668234.0, 5325781.0]]]}}, {"id": "24", "type": "Feature", "properties": {"attribute": "PEM1C", "wetland_type": "Freshwater Emergent Wetland", "acres": 0.61398203, "hgm_code": "TEBAVR", "hgm_desc": "Terrene Basin Vertical", "spcc_desc": "Shallow Marsh", "cow_class1": "EM1", "circ39_class": 3, "hgm_symbol": "Depression", "_source_index": "1358256"}, "geometry": {"type": "Polygon", "coordinates": [[[668299.5, 5325845.0], [668294.0, 5325842.5], [668290.5, 5325838.5], [668288.5, 5325838.0], [668284.5, 5325833.0], [668280.5, 5325832.0], [668278.0, 5325829.0], [668276.0, 5325828.0], [668272.0, 5325828.0], [668269.0, 5325825.0], [668265.0, 5325824.5], [668261.0, 5325821.0], [668257.0, 5325821.0], [668253.0, 5325818.5], [668250.0, 5325818.0], [668249.0, 5325816.5], [668247.0, 5325816.0], [668244.5, 5325812.5], [668241.0, 5325811.5], [668240.0, 5325810.0], [668236.0, 5325808.0], [668233.31985, 5325804.554092857], [668233.31985, 5325833.030461905], [668243.5, 5325834.0], [668246.0, 5325836.0], [668251.5, 5325836.0], [668252.5, 5325837.0], [668265.5, 5325837.0], [668273.0, 5325838.5], [668275.0, 5325840.0], [668279.5, 5325848.0], [668280.1474285711, 5325848.5665], [668303.4860882349, 5325848.5665], [668299.5, 5325845.0]]]}}], "crs": {"type": "name", "properties": {"name": "urn:ogc:def:crs:EPSG::26915"}}}